NAVSTAR 77 (USA 289)    
1 43873U 18109A   24063.62533089  .00000008  00000+0  00000+0 0  9991
2 43873  55.2541 125.1994 0029055 194.7696 336.8563  2.00574658 38319
